{
  "links" : {
    "next" : "https://api.nasa.gov/neo/rest/v1/feed?start_date=2003-04-09&end_date=2003-04-09&detailed=true&api_key=t0TVs3DtDT2H8Oy2Zy8m2eVrNsAVKAexjcZXUckd",
    "prev" : "https://api.nasa.gov/neo/rest/v1/feed?start_date=2003-04-07&end_date=2003-04-07&detailed=true&api_key=t0TVs3DtDT2H8Oy2Zy8m2eVrNsAVKAexjcZXUckd",
    "self" : "https://api.nasa.gov/neo/rest/v1/feed?start_date=2003-04-08&end_date=2003-04-08&detailed=true&api_key=t0TVs3DtDT2H8Oy2Zy8m2eVrNsAVKAexjcZXUckd"
  },
  "element_count" : 8,
  "near_earth_objects" : {
    "2003-04-08" : [ {
      "links" : {
        "self" : "https://api.nasa.gov/neo/rest/v1/neo/3143112?api_key=t0TVs3DtDT2H8Oy2Zy8m2eVrNsAVKAexjcZXUckd"
      },
      "neo_reference_id" : "3143112",
      "name" : "(2002 VO85)",
      "nasa_jpl_url" : "http://ssd.jpl.nasa.gov/sbdb.cgi?sstr=3143112",
      "absolute_magnitude_h" : 21.6,
      "estimated_diameter" : {
        "kilometers" : {
          "estimated_diameter_min" : 0.1272198785,
          "estimated_diameter_max" : 0.2844722965
        },
        "meters" : {
          "estimated_diameter_min" : 127.2198785394,
          "estimated_diameter_max" : 284.4722965033
        },
        "miles" : {
          "estimated_diameter_min" : 0.0790507431,
          "estimated_diameter_max" : 0.1767628354
        },
        "feet" : {
          "estimated_diameter_min" : 417.3880663071,
          "estimated_diameter_max" : 933.3080892598
        }
      },
      "is_potentially_hazardous_asteroid" : false,
      "close_approach_data" : [ {
        "close_approach_date" : "2003-04-08",
        "epoch_date_close_approach" : 1049785200000,
        "relative_velocity" : {
          "kilometers_per_second" : "11.0905284064",
          "kilometers_per_hour" : "39925.9022629903",
          "miles_per_hour" : "24808.4029922453"
        },
        "miss_distance" : {
          "astronomical" : "0.3048442294",
          "lunar" : "118.5844039917",
          "kilometers" : "45604048",
          "miles" : "28337042"
        },
        "orbiting_body" : "Earth"
      } ],
      "orbital_data" : {
        "orbit_id" : "17",
        "orbit_determination_date" : "2017-04-06 09:14:38",
        "orbit_uncertainty" : "1",
        "minimum_orbit_intersection" : ".156839",
        "jupiter_tisserand_invariant" : "4.840",
        "epoch_osculation" : "2458000.5",
        "eccentricity" : ".2223299659475394",
        "semi_major_axis" : "1.329054856791204",
        "inclination" : "20.13103937377096",
        "ascending_node_longitude" : "230.1415922252418",
        "orbital_period" : "559.6452050168231",
        "perihelion_distance" : "1.033566135738404",
        "perihelion_argument" : "248.1718328269112",
        "aphelion_distance" : "1.624543577844004",
        "perihelion_time" : "2458254.062266699113",
        "mean_anomaly" : "196.8923468058007",
        "mean_motion" : ".6432646912237518",
        "equinox" : "J2000"
      }
    }, {
      "links" : {
        "self" : "https://api.nasa.gov/neo/rest/v1/neo/3151654?api_key=t0TVs3DtDT2H8Oy2Zy8m2eVrNsAVKAexjcZXUckd"
      },
      "neo_reference_id" : "3151654",
      "name" : "(2003 FR6)",
      "nasa_jpl_url" : "http://ssd.jpl.nasa.gov/sbdb.cgi?sstr=3151654",
      "absolute_magnitude_h" : 19.0,
      "estimated_diameter" : {
        "kilometers" : {
          "estimated_diameter_min" : 0.4212646106,
          "estimated_diameter_max" : 0.9419763057
        },
        "meters" : {
          "estimated_diameter_min" : 421.2646105562,
          "estimated_diameter_max" : 941.9763057186
        },
        "miles" : {
          "estimated_diameter_min" : 0.2617616123,
          "estimated_diameter_max" : 0.5853167591
        },
        "feet" : {
          "estimated_diameter_min" : 1382.1017848971,
          "estimated_diameter_max" : 3090.4735428537
        }
      },
      "is_potentially_hazardous_asteroid" : false,
      "close_approach_data" : [ {
        "close_approach_date" : "2003-04-08",
        "epoch_date_close_approach" : 1049785200000,
        "relative_velocity" : {
          "kilometers_per_second" : "19.9245259418",
          "kilometers_per_hour" : "71728.2933906139",
          "miles_per_hour" : "44569.1720792956"
        },
        "miss_distance" : {
          "astronomical" : "0.4982135216",
          "lunar" : "193.8050689697",
          "kilometers" : "74531680",
          "miles" : "46311840"
        },
        "orbiting_body" : "Earth"
      } ],
      "orbital_data" : {
        "orbit_id" : "25",
        "orbit_determination_date" : "2017-04-23 06:17:16",
        "orbit_uncertainty" : "0",
        "minimum_orbit_intersection" : ".427006",
        "jupiter_tisserand_invariant" : "3.480",
        "epoch_osculation" : "2457800.5",
        "eccentricity" : ".397531031762428",
        "semi_major_axis" : "1.987630967541354",
        "inclination" : "40.55116657254021",
        "ascending_node_longitude" : "186.0564306229076",
        "orbital_period" : "1023.533492978311",
        "perihelion_distance" : "1.197485978251686",
        "perihelion_argument" : "72.55277280371003",
        "aphelion_distance" : "2.777775956831022",
        "perihelion_time" : "2457942.982894003499",
        "mean_anomaly" : "309.88552676278",
        "mean_motion" : ".3517227354744009",
        "equinox" : "J2000"
      }
    }, {
      "links" : {
        "self" : "https://api.nasa.gov/neo/rest/v1/neo/3152322?api_key=t0TVs3DtDT2H8Oy2Zy8m2eVrNsAVKAexjcZXUckd"
      },
      "neo_reference_id" : "3152322",
      "name" : "(2003 GD42)",
      "nasa_jpl_url" : "http://ssd.jpl.nasa.gov/sbdb.cgi?sstr=3152322",
      "absolute_magnitude_h" : 24.7,
      "estimated_diameter" : {
        "kilometers" : {
          "estimated_diameter_min" : 0.0305179233,
          "estimated_diameter_max" : 0.0682401509
        },
        "meters" : {
          "estimated_diameter_min" : 30.5179232594,
          "estimated_diameter_max" : 68.2401509401
        },
        "miles" : {
          "estimated_diameter_min" : 0.0189629525,
          "estimated_diameter_max" : 0.0424024508
        },
        "feet" : {
          "estimated_diameter_min" : 100.1244233463,
          "estimated_diameter_max" : 223.8850168104
        }
      },
      "is_potentially_hazardous_asteroid" : false,
      "close_approach_data" : [ {
        "close_approach_date" : "2003-04-08",
        "epoch_date_close_approach" : 1049785200000,
        "relative_velocity" : {
          "kilometers_per_second" : "7.5613509831",
          "kilometers_per_hour" : "27220.8635389845",
          "miles_per_hour" : "16913.9860139874"
        },
        "miss_distance" : {
          "astronomical" : "0.0158666231",
          "lunar" : "6.1721162796",
          "kilometers" : "2373613",
          "miles" : "1474894.75"
        },
        "orbiting_body" : "Earth"
      } ],
      "orbital_data" : {
        "orbit_id" : "8",
        "orbit_determination_date" : "2017-04-06 09:14:09",
        "orbit_uncertainty" : "7",
        "minimum_orbit_intersection" : ".0140273",
        "jupiter_tisserand_invariant" : "4.968",
        "epoch_osculation" : "2458000.5",
        "eccentricity" : ".2288301213402342",
        "semi_major_axis" : "1.294738075714972",
        "inclination" : "12.24793730743609",
        "ascending_node_longitude" : "18.13601264824451",
        "orbital_period" : "538.1103022299473",
        "perihelion_distance" : ".9984630047452933",
        "perihelion_argument" : "156.2388872610046",
        "aphelion_distance" : "1.59101314668465",
        "perihelion_time" : "2458098.432292860402",
        "mean_anomaly" : "294.4825302848795",
        "mean_motion" : ".6690078196015721",
        "equinox" : "J2000"
      }
    } ]
  }
}